ONEWEB-0697             
1 61603U 24188K   25267.86451337 -.00000261  00000+0 -77130-3 0  9999
2 61603  87.8781  73.9293 0001815 119.7657 240.3652 13.11413796 49675
ONEWEB-0698             
1 61604U 24188L   25267.84248240  .00000570  00000+0  15717-2 0  9998
2 61604  87.8784  73.9482 0001097 132.1699 227.9522 13.11414713 49695
ONEWEB-0699             
1 61605U 24188M   25267.94958124  .00000540  00000+0  15108-2 0  9990
2 61605  87.8750  89.1430 0001594 111.7707 248.3591 13.10374666 48576
ONEWEB-0700             
1 61606U 24188N   25267.95124341  .00000657  00000+0  18464-2 0  9995
2 61606  87.8742  89.0257 0002138 103.3048 256.8318 13.10375146 48568
ONEWEB-0701             
1 61607U 24188P   25267.50968250  .00000388  00000+0  10753-2 0  9996
2 61607  87.8734  89.2348 0001693 118.4028 241.7270 13.10370348 48517
ONEWEB-0702             
1 61608U 24188Q   25267.50677681 -.00000219  00000+0 -65462-3 0  9995
2 61608  87.8727  73.9370 0002081 118.7796 241.3541 13.11417449 49661
ONEWEB-0704             
1 61609U 24188R   25267.95621642  .00000668  00000+0  18759-2 0  9993
2 61609  87.8763  89.0989 0002168 114.3912 245.7442 13.10373451 48552
ONEWEB-0705             
1 61610U 24188S   25267.96117683  .00001540  00000+0  43750-2 0  9990
2 61610  87.8747  89.1297 0002857  95.3820 264.7633 13.10382249 40729
